{"type":"FeatureCollection","features":[{"type":"Feature","properties":{"name":"绍兴市越城区滨海新区农田项目区边界","level":"项目区"},"geometry":{"type":"Polygon","coordinates":[[[120.5162807,30.2099973],[120.5162946,30.2099159],[120.5174953,30.206319],[120.5175885,30.2060876],[120.5176924,30.2058626],[120.5177493,30.2057684],[120.5184098,30.2048228],[120.5189513,30.2040719],[120.5190994,30.2038899],[120.519278,30.2037594],[120.5200193,30.203376],[120.5205021,30.2031733],[120.5206892,30.2031018],[120.5628789,30.1886785],[120.5656458,30.1880039],[120.5658154,30.1879771],[120.5660742,30.1880418],[120.5672035,30.1884547],[120.5688949,30.1892112],[120.5693546,30.1894254],[120.5748188,30.1922893],[120.5832993,30.1967736],[120.5836233,30.1969664],[120.5838456,30.1971486],[120.5842607,30.1975368],[120.584424,30.1977162],[120.5845097,30.1979492],[120.593163,30.2306979],[120.5932889,30.231204],[120.5933505,30.2315253],[120.5935192,30.233989],[120.5935326,30.2343638],[120.5935032,30.2346879],[120.5934362,30.2349959],[120.5933478,30.235269],[120.590753,30.2415941],[120.5903861,30.2422716],[120.5903486,30.2423171],[120.5429197,30.2395287],[120.5170709,30.2314341],[120.5169264,30.2313484],[120.5168942,30.2311395],[120.5162807,30.2099973]]]}}]}
